[{"OBJECT_NAME":"STARLINK-1448","OBJECT_ID":"2020-035J","EPOCH":"2026-03-10T00:00:02.999808","MEAN_MOTION":15.52376322,"ECCENTRICITY":0.00079659,"INCLINATION":53.0511,"RA_OF_ASC_NODE":51.24,"ARG_OF_PERICENTER":79.1097,"MEAN_ANOMALY":73.0484,"EPHEMERIS_TYPE":0,"CLASSIFICATION_TYPE":"U","NORAD_CAT_ID":45665,"ELEMENT_SET_NO":999,"REV_AT_EPOCH":591,"BSTAR":0.001926692,"MEAN_MOTION_DOT":0.00121047,"MEAN_MOTION_DDOT":0},{"OBJECT_NAME":"FREGAT DEB","OBJECT_ID":"2011-037BP","EPOCH":"2026-03-09T06:46:06.972096","MEAN_MOTION":12.80481599,"ECCENTRICITY":0.12781698,"INCLINATION":51.4136,"RA_OF_ASC_NODE":170.397,"ARG_OF_PERICENTER":239.8148,"MEAN_ANOMALY":107.0118,"EPHEMERIS_TYPE":0,"CLASSIFICATION_TYPE":"U","NORAD_CAT_ID":45829,"ELEMENT_SET_NO":999,"REV_AT_EPOCH":25015,"BSTAR":0.0043609848,"MEAN_MOTION_DOT":0.00065096,"MEAN_MOTION_DDOT":0}]
